GLOBALSTAR M067         
1 32263U 07048A   25333.59182652 -.00000096  00000+0  13238-4 0  9995
2 32263  51.9737 271.9400 0001447   2.2565 168.6522 12.40681837830011
GLOBALSTAR M070         
1 32264U 07048B   25333.29559679 -.00000068  00000+0  19873-3 0  9999
2 32264  51.9772 345.5122 0000330 120.1837 255.4028 12.62326474834525
GLOBALSTAR M066         
1 32265U 07048C   25333.58278872 -.00000088  00000+0  54800-4 0  9997
2 32265  51.9595 270.9185 0005209 352.7939 178.1011 12.30381039835656
GLOBALSTAR M068         
1 32266U 07048D   25333.73449248 -.00000078  00000+0  14646-3 0  9994
2 32266  51.9854 157.6078 0001998 115.2255 325.5879 12.62834076838473
GLOBALSTAR M079         
1 37188U 10054A   25333.85434381 -.00000101  00000+0  16861-4 0  9997
2 37188  52.0058 355.4692 0000067   5.0674 167.4678 12.62268730697376
GLOBALSTAR M074         
1 37189U 10054B   25333.22599881 -.00000093  00000+0  61581-4 0  9995
2 37189  52.0033 356.6784 0000355  73.9082   1.8763 12.62263685697901
GLOBALSTAR M076         
1 37190U 10054C   25333.82802394 -.00000091  00000+0  68483-4 0  9995
2 37190  52.0050 355.0336 0000319  37.0487 134.4247 12.62267652697692
GLOBALSTAR M077         
1 37191U 10054D   25333.23622781 -.00000072  00000+0  13996-3 0  9998
2 37191  52.0117 327.4856 0017619 307.7862  65.1840 11.82670104697760
